{
  "norad_id": 68422,
  "name": "TRANSPORTER-16 OBJECT G",
  "history": [
    {
      "epoch": "2026-04-14T03:11:01.273632Z",
      "apogee_km": 512.9154972950137,
      "perigee_km": 509.0411966061956,
      "latitude_deg": -2.9438779705118126e-05,
      "longitude_deg": 173.48883418266328,
      "height_km": 514.2128936286044,
      "semi_major_axis_km": 6889.115346950604,
      "eccentricity": 0.00028119,
      "inclination_deg": 97.4431,
      "raan_deg": 63.5576,
      "arg_perigee_deg": 94.5078,
      "mean_anomaly_deg": 265.6477,
      "mean_motion_rev_day": 15.18299949
    }
  ]
}